0 COSMOS 374 DEB
1 04823U 70089T   13281.43366486  .00000091  00000-0  13431-3 0  9823
2 04823 063.0120 063.2147 0982418 054.2733 314.5672 12.62863993968730
0 COSMOS 374 DEB
1 04823U 70089T   13283.49244845  .00000082  00000-0  12748-3 0  9836
2 04823 063.0124 058.5007 0982458 054.4146 314.4431 12.62866848968992
0 COSMOS 374 DEB
1 04823U 70089T   13285.78878055  .00000071  00000-0  11865-3 0  9844
2 04823 063.0130 053.2431 0982546 054.5706 314.3062 12.62866999969282
0 COSMOS 374 DEB
1 04823U 70089T   13288.48102986  .00000244  00000-0  25461-3 0  9857
2 04823 063.0135 047.0790 0982604 054.7522 314.1465 12.62868861969622
0 COSMOS 374 DEB
1 04823U 70089T   13290.69817367  .00000178  00000-0  20267-3 0  9865
2 04823 063.0136 042.0030 0982687 054.9024 314.0147 12.62869720969907
0 COSMOS 374 DEB
1 04823U 70089T   13292.83613211  .00000184  00000-0  20746-3 0  9875
2 04823 063.0135 037.1082 0982743 055.0468 313.8876 12.62870140970170
0 COSMOS 374 DEB
1 04823U 70089T   13295.05327313  .00000142  00000-0  17387-3 0  9889
2 04823 063.0134 032.0319 0982793 055.1969 313.7555 12.62871183970450
